STARLINK-2727           
1 48652U 21044Q   23186.39814892 -.00000697  00000+0 -27885-4 0  9997
2 48652  53.0541 193.3409 0001262  91.8133 268.3000 15.06397406117098
STARLINK-2720           
1 48653U 21044R   23187.05794106  .00000284  00000+0  37927-4 0  9995
2 48653  53.0532 190.3756 0001229  84.6270 275.4859 15.06394838117194
STARLINK-2651           
1 48654U 21044S   23186.72251783  .00001177  00000+0  97897-4 0  9992
2 48654  53.0534 191.8820 0001071  77.6255 282.4854 15.06398719117202
STARLINK-2657           
1 48655U 21044T   23186.71884761 -.00000411  00000+0 -87116-5 0  9996
2 48655  53.0540 191.9002 0000597 101.9509 258.1547 15.06386556117146
STARLINK-2701           
1 48656U 21044U   23186.71514537 -.00000151  00000+0  87280-5 0  9990
2 48656  53.0544 191.9169 0001001  80.2657 279.8445 15.06396540117140
STARLINK-2734           
1 48657U 21044V   23186.71146033  .00000431  00000+0  47850-4 0  9991
2 48657  53.0533 191.9348 0001121  79.5736 280.5379 15.06398650117206
STARLINK-2647           
1 48658U 21044W   23186.70777289  .00000806  00000+0  73005-4 0  9991
2 48658  53.0530 191.9515 0001019  73.0434 287.0666 15.06399968117204
STARLINK-2717           
1 48659U 21044X   23186.70408486  .00000495  00000+0  52120-4 0  9991
2 48659  53.0537 191.9659 0001029  79.0014 281.1091 15.06398514117148
STARLINK-2688           
1 48660U 21044Y   23187.03212997  .00001617  00000+0  12740-3 0  9990
2 48660  53.0538 190.4948 0001063  78.3140 281.7968 15.06405768117190
STARLINK-2708           
1 48661U 21044Z   23186.70132166  .00000412  00000+0  46572-4 0  9996
2 48661  53.0526 181.9775 0001183  88.7632 271.3493 15.06399046117341
STARLINK-2726           
1 48662U 21044AA  23186.03416499  .00000014  00000+0  19842-4 0  9995
2 48662  53.0538 184.9709 0001088  55.5467 304.5624 15.06399748117183
STARLINK-2667           
1 48663U 21044AB  23186.69395017  .00000225  00000+0  33976-4 0  9998
2 48663  53.0538 182.0086 0001005  80.4663 279.6440 15.06396884117282
STARLINK-2709           
1 48664U 21044AC  23187.08834601  .00000710  00000+0  66537-4 0  9998
2 48664  53.0541 180.2377 0001164  83.8997 276.2124 15.06391690117409
STARLINK-2653           
1 48665U 21044AD  23186.70406472  .00000787  00000+0  71703-4 0  9993
2 48665  53.0535 181.9677 0001070  82.9749 277.1362 15.06398424117344
STARLINK-2666           
1 48666U 21044AE  23186.38438487  .00000772  00000+0  70728-4 0  9999
2 48666  53.0537 183.8717 0001094  90.4994 269.6121 15.06401972117280
STARLINK-2735           
1 48667U 21044AF  23186.68658090  .00000681  00000+0  64631-4 0  9992
2 48667  53.0539 182.0412 0001368  87.7209 272.3937 15.06396613117289
STARLINK-2738           
1 48668U 21044AG  23187.08097659 -.00000334  00000+0 -35120-5 0  9995
2 48668  53.0534 180.2759 0001204  84.8400 275.2726 15.06389651117405
STARLINK-2707           
1 48669U 21044AH  23186.67920367 -.00000302  00000+0 -14127-5 0  9990
2 48669  53.0532 182.0787 0001231  71.7220 288.3902 15.06396409117275
STARLINK-2763           
1 48670U 21044AJ  23187.00725472  .00000114  00000+0  26545-4 0  9995
2 48670  53.0534 180.6053 0001193  82.2681 277.8443 15.06392652117329
STARLINK-2745           
1 48671U 21044AK  23186.27374440  .00000860  00000+0  76609-4 0  9993
2 48671  53.0540 183.8972 0001118  82.0442 278.0673 15.06402941117211
STARLINK-2705           
1 48672U 21044AL  23186.99987922  .00000511  00000+0  53204-4 0  9997
2 48672  53.0544 180.6393 0001064  77.5702 282.5406 15.06396673117382
STARLINK-2711           
1 48673U 21044AM  23186.46542188  .00000411  00000+0  46486-4 0  9994
2 48673  53.0536 183.0369 0001406  89.1878 270.9272 15.06400382117304
STARLINK-2712           
1 48674U 21044AN  23186.72617565  .00000308  00000+0  39568-4 0  9994
2 48674  53.0538 181.8550 0001041  81.9684 278.1423 15.06398167117344
STARLINK-2737           
1 48675U 21044AP  23187.05516687  .00000840  00000+0  75246-4 0  9999
2 48675  53.0540 180.3873 0000891  76.5693 283.5396 15.06399568117336
STARLINK-2746           
1 48676U 21044AQ  23186.98513762  .00000322  00000+0  40511-4 0  9994
2 48676  53.0538 180.7071 0000835  80.8447 279.2637 15.06395122117388
STARLINK-2719           
1 48677U 21044AR  23186.71511832  .00000515  00000+0  53443-4 0  9994
2 48677  53.0542 181.9029 0001071  85.6518 274.4594 15.06397207117289
STARLINK-2615           
1 48678U 21044AS  23186.97776775  .00000551  00000+0  55871-4 0  9999
2 48678  53.0544 180.7365 0001045  90.6344 269.4765 15.06395715117327
STARLINK-2648           
1 48679U 21044AT  23185.71349196  .00001422  00000+0  11432-3 0  9996
2 48679  53.0536 186.4108 0001125  79.7382 280.3734 15.06397507117134
STARLINK-2649           
1 48680U 21044AU  23185.97519052  .00000580  00000+0  57854-4 0  9999
2 48680  53.0536 185.2399 0001143  92.0680 268.0440 15.06398822117233
STARLINK-2725           
1 48681U 21044AV  23186.63777095  .00000315  00000+0  40075-4 0  9990
2 48681  53.0544 152.5051 0001212  89.0893 271.0235 15.06392866117748
STARLINK-2743           
1 48682U 21044AW  23186.56864391 -.00000070  00000+0  14192-4 0  9999
2 48682  53.0535 142.7322 0001169  87.0845 273.0277 15.06399545117814
STARLINK-2756           
1 48683U 21044AX  23186.65709310  .00001713  00000+0  13392-3 0  9993
2 48683  53.0545 142.1849 0001297  92.0613 268.0524 15.06389258117836
STARLINK-2741           
1 48684U 21044AY  23187.01145179 -.00000817  00000+0 -35949-4 0  9991
2 48684  53.0545 155.9425 0001387  89.8197 270.2951 15.06389511117730
STARLINK-2751           
1 48685U 21044AZ  23186.03048731  .00003564  00000+0  25800-3 0  9993
2 48685  53.0540 145.0390 0001257  93.7612 266.3520 15.06409199117743
STARLINK-2629           
1 48686U 21044BA  23186.95339404  .00000991  00000+0  85441-4 0  9994
2 48686  53.0545 146.1232 0001317  97.1927 262.9211 15.06383252117863
STARLINK-2627           
1 48687U 21044BB  23187.12751525  .00003004  00000+0  22053-3 0  9994
2 48687  53.0532 135.0664 0001369  92.4334 267.6812 15.06389556117977
STARLINK-2742           
1 48688U 21044BC  23186.93215932  .00000632  00000+0  61363-4 0  9992
2 48688  53.0554 135.9373 0001347  95.0877 265.0266 15.06386831117940
STARLINK-2617           
1 48689U 21044BD  23186.60548815 -.00001083  00000+0 -53869-4 0  9991
2 48689  53.0539 142.3770 0001133  82.1753 277.9365 15.06389163117820
STARLINK-2740           
1 48690U 21044BE  23187.07637214 -.00000742  00000+0 -30913-4 0  9993
2 48690  53.0545 150.2967 0001210  95.8781 264.2346 15.06386872117814
STARLINK-2750           
1 48691U 21044BF  23186.98285387 -.00000302  00000+0 -13771-5 0  9999
2 48691  53.0549 145.7156 0001381  97.5707 262.5439 15.06381904117819
STARLINK-2752           
1 48692U 21044BG  23186.76906740  .00001069  00000+0  90636-4 0  9992
2 48692  53.0548 146.7951 0001211  88.4573 271.6555 15.06394052117789
STARLINK-2618           
1 48693U 21044BH  23186.64416433  .00000135  00000+0  27965-4 0  9993
2 48693  53.0540 152.2351 0001320  97.7504 262.3635 15.06396206117695
STARLINK-2748           
1 48694U 21044BJ  23187.01046502 -.00001076  00000+0 -53364-4 0  9991
2 48694  53.0536 155.5812 0001321  87.8613 272.2527 15.06385786117670
STARLINK-2616           
1 48695U 21044BK  23185.97196190 -.00003598  00000+0 -22275-3 0  9991
2 48695  53.0543 160.2996 0001070 102.7059 257.4049 15.06407243117584
STARLINK-2753           
1 48696U 21044BL  23187.02385451 -.00001593  00000+0 -88070-4 0  9999
2 48696  53.0535 160.5786 0001351  83.4740 276.6403 15.06392775117614
STARLINK-2715           
1 48697U 21044BM  23186.65524774  .00000437  00000+0  48261-4 0  9993
2 48697  53.0542 162.1917 0001153  91.5943 268.5178 15.06395381117550
ONEWEB-0211             
1 48767U 21045A   23186.05925309 -.00000028  00000+0 -10876-3 0  9993
2 48767  87.9027 113.8724 0001964  80.9472 279.1881 13.15548192103798
ONEWEB-0223             
1 48768U 21045B   23186.53669918 -.00000411  00000+0 -11264-2 0  9995
2 48768  87.9020 113.7840 0001511  78.3268 281.8031 13.15547001103854
ONEWEB-0230             
1 48769U 21045C   23186.50924751 -.00000081  00000+0 -25038-3 0  9990
2 48769  87.9044 113.8413 0002065  78.9094 281.2268 13.15543550104083
ONEWEB-0237             
1 48770U 21045D   23186.04234517  .00000047  00000+0  90398-4 0  9997
2 48770  87.9030 113.8617 0001617  64.7200 295.4097 13.15549347103761
ONEWEB-0235             
1 48771U 21045E   23186.54726192  .00000187  00000+0  46305-3 0  9991
2 48771  87.9026 113.7943 0001467  52.0532 308.0731 13.15551501103816
ONEWEB-0242             
1 48772U 21045F   23186.54095223  .00000043  00000+0  79894-4 0  9997
2 48772  87.9023 113.7869 0001905  71.3140 288.8197 13.15549891103862
ONEWEB-0241             
1 48773U 21045G   23186.07193004 -.00000101  00000+0 -30267-3 0  9999
2 48773  87.9034 113.8943 0001463  86.0407 274.0890 13.15548160103716
ONEWEB-0243             
1 48774U 21045H   23187.09234037  .00000252  00000+0  63469-3 0  9990
2 48774  87.9023 113.6556 0001718  61.6362 298.4941 13.15551680103870
ONEWEB-0222             
1 48775U 21045J   23187.08178288 -.00000562  00000+0 -15270-2 0  9997
2 48775  87.9022 113.6942 0001654  78.3202 281.8114 13.15549165103903
ONEWEB-0244             
1 48776U 21045K   23187.10290268  .00000164  00000+0  40275-3 0  9994
2 48776  87.9024 113.6748 0002085  67.2543 292.8807 13.15552704104471
ONEWEB-0247             
1 48777U 21045L   23187.09870389  .00000115  00000+0  27050-3 0  9993
2 48777  87.9038 113.6784 0001447  62.7168 297.4110 13.15548592103928
ONEWEB-0245             
1 48778U 21045M   23187.09447223  .00000233  00000+0  58422-3 0  9999
2 48778  87.9025 113.7022 0001720  86.4366 273.6961 13.15549118103899
ONEWEB-0229             
1 48779U 21045N   23186.32757160  .00000371  00000+0  95100-3 0  9996
2 48779  87.9026 113.8434 0002010  70.3225 289.8122 13.15549395103826
